ONEWEB-0180             
1 48213U 21031D   25317.28515725  .00000121  00000+0  29100-3 0  9996
2 48213  87.9009 332.6983 0001972  83.9283 276.2072 13.14501769219857
ONEWEB-0218             
1 48214U 21031E   25317.00289098 -.00000178  00000+0 -51456-3 0  9991
2 48214  87.9006 332.7549 0002752  86.4319 273.7125 13.14504602219972
ONEWEB-0209             
1 48215U 21031F   25317.06790079 -.00000385  00000+0 -10738-2 0  9991
2 48215  87.9000 332.7811 0001748  85.8402 274.2927 13.14501895219987
ONEWEB-0198             
1 48216U 21031G   25317.12831773  .00000026  00000+0  34410-4 0  9991
2 48216  87.9000 332.7668 0002130  82.9448 277.1924 13.14500664220100
ONEWEB-0189             
1 48217U 21031H   25317.29309636 -.00000030  00000+0 -11512-3 0  9992
2 48217  87.8998 332.7073 0002071  84.5338 275.6028 13.14501946219869
ONEWEB-0196             
1 48218U 21031J   25317.04253532  .00000325  00000+0  84084-3 0  9998
2 48218  87.8998 332.7721 0001922  87.7296 272.4054 13.14501224219832
ONEWEB-0183             
1 48219U 21031K   25317.09327419 -.00000046  00000+0 -15815-3 0  9998
2 48219  87.8984 332.7686 0001565  91.2352 268.8957 13.14504623219932
ONEWEB-0185             
1 48220U 21031L   25317.11946496  .00000257  00000+0  65875-3 0  9998
2 48220  87.8999 332.7343 0001582  80.1042 280.0267 13.14502523219861
ONEWEB-0187             
1 48221U 21031M   25317.09948626  .00000059  00000+0  12388-3 0  9994
2 48221  87.8988 332.7833 0001790  83.6022 276.5312 13.14501569219872
ONEWEB-0192             
1 48222U 21031N   25317.06948702 -.00000047  00000+0 -16088-3 0  9997
2 48222  87.8986 332.7805 0002019  90.8358 269.3004 13.14506173219781
ONEWEB-0219             
1 48223U 21031P   25317.04887697  .00000193  00000+0  48722-3 0  9991
2 48223  87.8997 332.7601 0001721  84.3827 275.7499 13.14500831219982
ONEWEB-0202             
1 48224U 21031Q   25317.10598480  .00000150  00000+0  36995-3 0  9990
2 48224  87.8990 332.7621 0002437  81.8515 278.2892 13.14503362219975
ONEWEB-0204             
1 48225U 21031R   25317.29230630 -.00000072  00000+0 -22853-3 0  9994
2 48225  87.9002 332.7136 0001513  94.6353 265.4949 13.14501571219890
ONEWEB-0205             
1 48226U 21031S   25317.11548278  .00000174  00000+0  43476-3 0  9991
2 48226  87.9001 332.7420 0001782  87.2943 272.8391 13.14501025219883
ONEWEB-0206             
1 48227U 21031T   25317.08852530  .00000006  00000+0 -18667-4 0  9997
2 48227  87.9000 332.7347 0001965 100.2557 259.8794 13.14501663219836
ONEWEB-0182             
1 48228U 21031U   25317.08376907 -.00000926  00000+0 -25338-2 0  9990
2 48228  87.9002 332.7710 0002001  98.1311 262.0046 13.14497472220041
