[{"OBJECT_NAME":"ONEWEB-0180","OBJECT_ID":"2021-031D","EPOCH":"2025-11-13T06:50:37.586400","MEAN_MOTION":13.14501769,"ECCENTRICITY":0.00019722,"INCLINATION":87.9009,"RA_OF_ASC_NODE":332.6983,"ARG_OF_PERICENTER":83.9283,"MEAN_ANOMALY":276.2072,"EPHEMERIS_TYPE":0,"CLASSIFICATION_TYPE":"U","NORAD_CAT_ID":48213,"ELEMENT_SET_NO":999,"REV_AT_EPOCH":21985,"BSTAR":0.00029099693,"MEAN_MOTION_DOT":1.21e-6,"MEAN_MOTION_DDOT":0},{"OBJECT_NAME":"ONEWEB-0218","OBJECT_ID":"2021-031E","EPOCH":"2025-11-13T00:04:09.780672","MEAN_MOTION":13.14504602,"ECCENTRICITY":0.00027524,"INCLINATION":87.9006,"RA_OF_ASC_NODE":332.7549,"ARG_OF_PERICENTER":86.4319,"MEAN_ANOMALY":273.7125,"EPHEMERIS_TYPE":0,"CLASSIFICATION_TYPE":"U","NORAD_CAT_ID":48214,"ELEMENT_SET_NO":999,"REV_AT_EPOCH":21997,"BSTAR":-0.00051456397,"MEAN_MOTION_DOT":-1.78e-6,"MEAN_MOTION_DDOT":0},{"OBJECT_NAME":"ONEWEB-0209","OBJECT_ID":"2021-031F","EPOCH":"2025-11-13T01:37:46.628256","MEAN_MOTION":13.14501895,"ECCENTRICITY":0.00017486,"INCLINATION":87.9,"RA_OF_ASC_NODE":332.7811,"ARG_OF_PERICENTER":85.8402,"MEAN_ANOMALY":274.2927,"EPHEMERIS_TYPE":0,"CLASSIFICATION_TYPE":"U","NORAD_CAT_ID":48215,"ELEMENT_SET_NO":999,"REV_AT_EPOCH":21998,"BSTAR":-0.0010737895,"MEAN_MOTION_DOT":-3.85e-6,"MEAN_MOTION_DDOT":0},{"OBJECT_NAME":"ONEWEB-0198","OBJECT_ID":"2021-031G","EPOCH":"2025-11-13T03:04:46.651872","MEAN_MOTION":13.14500664,"ECCENTRICITY":0.000213,"INCLINATION":87.9,"RA_OF_ASC_NODE":332.7668,"ARG_OF_PERICENTER":82.9448,"MEAN_ANOMALY":277.1924,"EPHEMERIS_TYPE":0,"CLASSIFICATION_TYPE":"U","NORAD_CAT_ID":48216,"ELEMENT_SET_NO":999,"REV_AT_EPOCH":22010,"BSTAR":3.4410099e-5,"MEAN_MOTION_DOT":2.6e-7,"MEAN_MOTION_DDOT":0},{"OBJECT_NAME":"ONEWEB-0189","OBJECT_ID":"2021-031H","EPOCH":"2025-11-13T07:02:03.525504","MEAN_MOTION":13.14501946,"ECCENTRICITY":0.00020717,"INCLINATION":87.8998,"RA_OF_ASC_NODE":332.7073,"ARG_OF_PERICENTER":84.5338,"MEAN_ANOMALY":275.6028,"EPHEMERIS_TYPE":0,"CLASSIFICATION_TYPE":"U","NORAD_CAT_ID":48217,"ELEMENT_SET_NO":999,"REV_AT_EPOCH":21986,"BSTAR":-0.00011512257,"MEAN_MOTION_DOT":-3.0e-7,"MEAN_MOTION_DDOT":0},{"OBJECT_NAME":"ONEWEB-0196","OBJECT_ID":"2021-031J","EPOCH":"2025-11-13T01:01:15.051648","MEAN_MOTION":13.14501224,"ECCENTRICITY":0.00019228,"INCLINATION":87.8998,"RA_OF_ASC_NODE":332.7721,"ARG_OF_PERICENTER":87.7296,"MEAN_ANOMALY":272.4054,"EPHEMERIS_TYPE":0,"CLASSIFICATION_TYPE":"U","NORAD_CAT_ID":48218,"ELEMENT_SET_NO":999,"REV_AT_EPOCH":21983,"BSTAR":0.00084084353,"MEAN_MOTION_DOT":3.25e-6,"MEAN_MOTION_DDOT":0},{"OBJECT_NAME":"ONEWEB-0183","OBJECT_ID":"2021-031K","EPOCH":"2025-11-13T02:14:18.890016","MEAN_MOTION":13.14504623,"ECCENTRICITY":0.00015657,"INCLINATION":87.8984,"RA_OF_ASC_NODE":332.7686,"ARG_OF_PERICENTER":91.2352,"MEAN_ANOMALY":268.8957,"EPHEMERIS_TYPE":0,"CLASSIFICATION_TYPE":"U","NORAD_CAT_ID":48219,"ELEMENT_SET_NO":999,"REV_AT_EPOCH":21993,"BSTAR":-0.00015814603,"MEAN_MOTION_DOT":-4.6e-7,"MEAN_MOTION_DDOT":0},{"OBJECT_NAME":"ONEWEB-0185","OBJECT_ID":"2021-031L","EPOCH":"2025-11-13T02:52:01.772544","MEAN_MOTION":13.14502523,"ECCENTRICITY":0.00015821,"INCLINATION":87.8999,"RA_OF_ASC_NODE":332.7343,"ARG_OF_PERICENTER":80.1042,"MEAN_ANOMALY":280.0267,"EPHEMERIS_TYPE":0,"CLASSIFICATION_TYPE":"U","NORAD_CAT_ID":48220,"ELEMENT_SET_NO":999,"REV_AT_EPOCH":21986,"BSTAR":0.00065874658,"MEAN_MOTION_DOT":2.57e-6,"MEAN_MOTION_DDOT":0},{"OBJECT_NAME":"ONEWEB-0187","OBJECT_ID":"2021-031M","EPOCH":"2025-11-13T02:23:15.612864","MEAN_MOTION":13.14501569,"ECCENTRICITY":0.00017905,"INCLINATION":87.8988,"RA_OF_ASC_NODE":332.7833,"ARG_OF_PERICENTER":83.6022,"MEAN_ANOMALY":276.5312,"EPHEMERIS_TYPE":0,"CLASSIFICATION_TYPE":"U","NORAD_CAT_ID":48221,"ELEMENT_SET_NO":999,"REV_AT_EPOCH":21987,"BSTAR":0.00012388005,"MEAN_MOTION_DOT":5.9e-7,"MEAN_MOTION_DDOT":0},{"OBJECT_NAME":"ONEWEB-0192","OBJECT_ID":"2021-031N","EPOCH":"2025-11-13T01:40:03.678528","MEAN_MOTION":13.14506173,"ECCENTRICITY":0.00020198,"INCLINATION":87.8986,"RA_OF_ASC_NODE":332.7805,"ARG_OF_PERICENTER":90.8358,"MEAN_ANOMALY":269.3004,"EPHEMERIS_TYPE":0,"CLASSIFICATION_TYPE":"U","NORAD_CAT_ID":48222,"ELEMENT_SET_NO":999,"REV_AT_EPOCH":21978,"BSTAR":-0.0001608784,"MEAN_MOTION_DOT":-4.7e-7,"MEAN_MOTION_DDOT":0},{"OBJECT_NAME":"ONEWEB-0219","OBJECT_ID":"2021-031P","EPOCH":"2025-11-13T01:10:22.970208","MEAN_MOTION":13.14500831,"ECCENTRICITY":0.00017216,"INCLINATION":87.8997,"RA_OF_ASC_NODE":332.7601,"ARG_OF_PERICENTER":84.3827,"MEAN_ANOMALY":275.7499,"EPHEMERIS_TYPE":0,"CLASSIFICATION_TYPE":"U","NORAD_CAT_ID":48223,"ELEMENT_SET_NO":999,"REV_AT_EPOCH":21998,"BSTAR":0.00048721735,"MEAN_MOTION_DOT":1.93e-6,"MEAN_MOTION_DDOT":0},{"OBJECT_NAME":"ONEWEB-0202","OBJECT_ID":"2021-031Q","EPOCH":"2025-11-13T02:32:37.086720","MEAN_MOTION":13.14503362,"ECCENTRICITY":0.00024374,"INCLINATION":87.899,"RA_OF_ASC_NODE":332.7621,"ARG_OF_PERICENTER":81.8515,"MEAN_ANOMALY":278.2892,"EPHEMERIS_TYPE":0,"CLASSIFICATION_TYPE":"U","NORAD_CAT_ID":48224,"ELEMENT_SET_NO":999,"REV_AT_EPOCH":21997,"BSTAR":0.00036995225,"MEAN_MOTION_DOT":1.5e-6,"MEAN_MOTION_DDOT":0},{"OBJECT_NAME":"ONEWEB-0204","OBJECT_ID":"2021-031R","EPOCH":"2025-11-13T07:00:55.264320","MEAN_MOTION":13.14501571,"ECCENTRICITY":0.0001513,"INCLINATION":87.9002,"RA_OF_ASC_NODE":332.7136,"ARG_OF_PERICENTER":94.6353,"MEAN_ANOMALY":265.4949,"EPHEMERIS_TYPE":0,"CLASSIFICATION_TYPE":"U","NORAD_CAT_ID":48225,"ELEMENT_SET_NO":999,"REV_AT_EPOCH":21989,"BSTAR":-0.00022853493,"MEAN_MOTION_DOT":-7.2e-7,"MEAN_MOTION_DDOT":0},{"OBJECT_NAME":"ONEWEB-0205","OBJECT_ID":"2021-031S","EPOCH":"2025-11-13T02:46:17.712192","MEAN_MOTION":13.14501025,"ECCENTRICITY":0.00017829,"INCLINATION":87.9001,"RA_OF_ASC_NODE":332.742,"ARG_OF_PERICENTER":87.2943,"MEAN_ANOMALY":272.8391,"EPHEMERIS_TYPE":0,"CLASSIFICATION_TYPE":"U","NORAD_CAT_ID":48226,"ELEMENT_SET_NO":999,"REV_AT_EPOCH":21988,"BSTAR":0.00043475769,"MEAN_MOTION_DOT":1.74e-6,"MEAN_MOTION_DDOT":0},{"OBJECT_NAME":"ONEWEB-0206","OBJECT_ID":"2021-031T","EPOCH":"2025-11-13T02:07:28.585920","MEAN_MOTION":13.14501663,"ECCENTRICITY":0.00019655,"INCLINATION":87.9,"RA_OF_ASC_NODE":332.7347,"ARG_OF_PERICENTER":100.2557,"MEAN_ANOMALY":259.8794,"EPHEMERIS_TYPE":0,"CLASSIFICATION_TYPE":"U","NORAD_CAT_ID":48227,"ELEMENT_SET_NO":999,"REV_AT_EPOCH":21983,"BSTAR":-1.8667054e-5,"MEAN_MOTION_DOT":6.0e-8,"MEAN_MOTION_DDOT":0},{"OBJECT_NAME":"ONEWEB-0182","OBJECT_ID":"2021-031U","EPOCH":"2025-11-13T02:00:37.647648","MEAN_MOTION":13.14497472,"ECCENTRICITY":0.00020018,"INCLINATION":87.9002,"RA_OF_ASC_NODE":332.771,"ARG_OF_PERICENTER":98.1311,"MEAN_ANOMALY":262.0046,"EPHEMERIS_TYPE":0,"CLASSIFICATION_TYPE":"U","NORAD_CAT_ID":48228,"ELEMENT_SET_NO":999,"REV_AT_EPOCH":22004,"BSTAR":-0.0025337945,"MEAN_MOTION_DOT":-9.26e-6,"MEAN_MOTION_DDOT":0}]
